K03Sd8Z 17.1   0.15 K167V 280.85344  297.11326  119.34576    9.62907  0.1636049  0.21871614   2.7282374  0 E2016-N49    36   6 2003-2016 0.30 M-v 38h MPCADO     0400          2003 SZ398         20160707
K03T20D 17.5   0.15 K167V 337.42680  108.78614  253.85208    6.47145  0.3362824  0.22554507   2.6728864  1 E2016-N49    44   4 2003-2016 0.35 M-v 38h MPCADO     0000          2003 TD20          20160707
K03U86B 16.6   0.15 K167V 296.66344  129.40065  280.00986    6.98511  0.2438061  0.21880457   2.7275023  0 E2016-N49   111   4 2003-2016 0.43 M-v 38h MPCADO     0400          2003 UB86          20160707
K03U93N 16.9   0.15 K167V 337.98659  146.04637  223.69849   10.90864  0.1983483  0.22412336   2.6841779  1 E2016-N49    41   4 2003-2016 0.47 M-v 38h MPCADO     0000          2003 UN93          20160707
K03UD2Y 16.5   0.15 K167V 300.50804  181.69713  247.36603    9.05907  0.2625964  0.22164557   2.7041453  1 E2016-N49    98   5 2003-2016 0.44 M-v 38h MPCADO     0400          2003 UY132         20160707
K03UI9E 16.3   0.15 K167V  11.10584   81.25336  230.03561   11.17676  0.3034235  0.22345347   2.6895398  0 E2016-N49    99   5 2003-2016 0.35 M-v 38h MPCADO     0400          2003 UE189         20160707
K03UV8A 17.4   0.15 K167V 339.34134  134.37090  208.11320    5.57277  0.1254542  0.22309133   2.6924496  0 E2016-N49    48   4 2003-2016 0.26 M-v 38h MPCADO     0400          2003 UA318         20160707
K03UV8E 17.7   0.15 K167V 341.04972   24.46436  302.06800    7.74203  0.2093324  0.29996395   2.2101581  0 E2016-N49    93   7 2003-2016 0.43 M-v 38h MPCADO     0400          2003 UE318         20160707
K03UX1J 16.9   0.15 K167V 326.64834   87.89446  277.09814   10.17746  0.2145941  0.22654828   2.6649897  0 E2016-N49    55   5 2003-2016 0.46 M-v 38h MPCADO     0000          2003 UJ331         20160707
K03V03C 15.5   0.15 K167V 334.99879   95.93219  264.18552   26.85613  0.4673746  0.21825207   2.7321034  0 E2016-N49   124   5 2003-2016 0.45 M-v 38h MPCADO     0405          2003 VC3           20160707
K03V10G 16.3   0.15 K167V 312.69770   68.85370  296.47619   10.56564  0.1896585  0.21555708   2.7548282  1 E2016-N49    65   6 2003-2016 0.44 M-v 38h MPCADO     0400          2003 VG10          20160707
K03W70Y 16.9   0.15 K167V 320.61444  126.02661  272.93120   11.91310  0.2606193  0.22422531   2.6833642  2 E2016-N49    29   3 2003-2016 0.39 M-v 38h MPCADO     0000          2003 WY70          20160707
K03WA8A 16.7   0.15 K167V 310.60228  154.34689  255.51849    7.23621  0.2078998  0.22401653   2.6850312  1 E2016-N49    95   5 2003-2016 0.43 M-v 38h MPCADO     0400          2003 WA108         20160707
K03Y35U 16.0   0.15 K167V 347.62234  115.55823  268.02232    7.37484  0.3753559  0.22496853   2.6774510  0 E2016-N49   180   5 2003-2016 0.50 M-v 38h MPCADO     0400          2003 YU35          20160708
K04C31X 16.0   0.15 K167V 210.66255  279.35053  137.21253   13.30121  0.0641946  0.18954602   3.0014165  2 E2016-N49    39   3 2004-2016 0.35 M-v 38h MPCADO     0000          2004 CX31          20160707
K04D57O 16.7   0.15 K167V  73.38258   66.08214  147.02412   18.53997  0.2615906  0.18274662   3.0754109  0 E2016-N49    76   4 2004-2016 0.40 M-v 38h MPCADO     0400          2004 DO57          20160707
K04E88E 18.1   0.15 K167V  86.34787   20.19333  181.85373    8.66071  0.1912993  0.26254340   2.4154719  0 E2016-N49    45   6 1993-2016 0.33 M-v 38h MPCADO     0400          2004 EE88          20160707
K04G40O 16.1   0.15 K167V 117.76979  351.57113  196.73335   11.03812  0.0677404  0.18321149   3.0702064  0 E2016-N49    77   8 2004-2016 0.30 M-v 38h MPCADO     0400          2004 GO40          20160707
K04G53X 17.9   0.15 K167V  38.01340   78.92735  202.54754   13.97771  0.1561020  0.26247212   2.4159091  0 E2016-N49    30   5 2004-2016 0.35 M-v 38h MPCADO     0007          2004 GX53          20160707
K04J29N 17.3   0.15 K167V  20.60751  203.69409   82.06967    4.60581  0.2596333  0.25367631   2.4714364  3 E2016-N49    27   3 2004-2016 0.45 M-v 38h MPCADO     0000          2004 JN29          20160707
K04P14T 16.8   0.15 K167V   3.92423  210.82620  104.01728    5.72012  0.1602247  0.24560662   2.5252788  2 E2016-N49    86   5 2004-2016 0.38 M-v 38h MPCADO     0400          2004 PT14          20160707
K04Q15O 17.7   0.15 K167V 334.45345   43.01309  301.64096    6.08823  0.2172421  0.24488288   2.5302519  2 E2016-N49    46   6 2000-2016 0.41 M-v 38h MPCADO     0000          2004 QO15          20160705
K04RF8T 18.2   0.15 K167V 334.79197   26.85517  341.20828    6.41960  0.2737147  0.24486609   2.5303676  2 E2016-N49    60   5 2000-2016 0.47 M-v 38h MPCADO     0000          2004 RT158         20160707
K04RG3C 18.0   0.15 K167V 347.45820  350.79423  352.78138    2.72784  0.1889909  0.24524723   2.5277453  2 E2016-N49    48   4 2004-2016 0.33 M-v 38h MPCADO     0000          2004 RC163         20160707
K04RU5V 17.2   0.15 K167V 359.50885  261.17951   60.74997    4.16543  0.3063795  0.24410615   2.5356165  2 E2016-N49   108   5 2000-2016 0.51 M-v 38h MPCADO     0400          2004 RV305         20160707
K04T15C 17.4   0.15 K167V 304.23865  185.50294  171.90800   14.91781  0.2589806  0.23503267   2.6004623  4 E2016-N49    37   3 2004-2016 0.52 M-v 38h MPCADO     0000          2004 TC15          20160708
K04X21K 17.2   0.15 K167V 323.31605  132.80221  248.95432    4.47614  0.2976795  0.23843008   2.5757004  1 E2016-N49    97   5 2004-2016 0.51 M-v 38h MPCADO     0400          2004 XK21          20160707
K04X33B 16.7   0.15 K167V 237.51836  193.40062  258.80271   12.86354  0.2228740  0.22724502   2.6595396  0 E2016-N49    39   5 2001-2016 0.28 M-v 38h MPCADO     0000          2004 XB33          20160707
K05J43S 18.4   0.15 K167V  22.36504   40.16541  222.59750    8.50278  0.3855311  0.27126683   2.3634055  1 E2016-N49    79   3 2005-2016 0.49 M-v 38h MPCADO     0005          2005 JS43          20160708
K05L10K 19.0   0.15 K167V  46.14651  129.73318  115.08104    7.96614  0.2499473  0.27582240   2.3373102  0 E2016-N49    30   4 2005-2016 0.17 M-v 38h MPCADO     0000          2005 LK10          20160707
K05M53M 18.3   0.15 K167V 359.60071   42.09434  262.29667    1.22768  0.2230184  0.26684871   2.3894208  0 E2016-N49    50   5 1998-2016 0.32 M-v 38h MPCADO     0400          2005 MM53          20160707
K05N17O 17.9   0.15 K167V 324.56083  152.00614  206.17079    0.43325  0.2081985  0.26815911   2.3816303  0 E2016-N49    76   7 1998-2016 0.30 M-v 38h MPCADO     0400          2005 NO17          20160705
K05N44W 20.4   0.15 K167V 206.54141    0.75146  114.45364    6.05912  0.4834430  1.43280058   0.7792537  2 E2016-N49   215   4 2005-2016 0.47 M-v 3Eh MPCALB     0C02          2005 NW44          20160707
K05O02Q 15.5   0.15 K167V 321.02090   99.63087  266.59180   24.01122  0.2972046  0.17618474   3.1513056  0 E2016-N49    48   7 2000-2016 0.43 M-v 38h MPCADO     0400          2005 OQ2           20160707
K05O04B 16.4   0.15 K167V 349.33726   31.35212  300.09896   14.55166  0.2953776  0.17978425   3.1091018  1 E2016-N49    69   4 2005-2016 0.41 M-v 38h MPCADO     0000          2005 OB4           20160708
K05P05O 17.5   0.15 K167V 322.69804  233.99205  127.96284    0.34304  0.2304513  0.26602439   2.3943543  0 E2016-N49    96   5 1994-2016 0.45 M-v 38h MPCADO     0400          2005 PO5           20160705
K05P05X 16.1   0.15 K167V  10.29630  355.37622  312.32215   12.41202  0.2096042  0.17996495   3.1070203  2 E2016-N49    47   3 2005-2016 0.44 M-v 38h MPCADO     0000          2005 PX5           20160707
K05P29G 15.7   0.15 K167V 333.10011  243.76532  103.83437   17.13478  0.2322970  0.17577705   3.1561764  0 E2016-N49    57   7 2005-2016 0.36 M-v 38h MPCADO     0400          2005 PG29          20160708
K05Q21T 17.7   0.15 K167V 282.81082  238.34659  161.17507    2.17025  0.1990945  0.26230884   2.4169116  0 E2016-N49    60   6 2005-2016 0.38 M-v 38h MPCADO     0400          2005 QT21          20160705
K05Q26Q 16.3   0.15 K167V  19.27369  136.61439  167.60095   16.88316  0.2153569  0.17662544   3.1460616  0 E2016-N49    56   6 2005-2016 0.22 M-v 38h MPCADO     0400          2005 QQ26          20160707
K05Q29M 18.0   0.15 K167V   2.74858   75.91495  251.47779    4.43611  0.2908212  0.27043042   2.3682762  0 E2016-N49    81   4 2005-2016 0.27 M-v 38h MPCADO     0400          2005 QM29          20160707
K05Q34T 18.0   0.15 K167V 355.38467  285.99377   46.46491    0.82316  0.2373132  0.26807155   2.3821489  1 E2016-N49    68   6 2005-2016 0.49 M-v 38h MPCADO     0400          2005 QT34          20160707
K05Q47G 17.8   0.15 K167V   4.66616  205.36163  111.70182    3.77763  0.1987059  0.26761378   2.3848646  2 E2016-N49    25   3 2005-2016 0.18 M-v 38h MPCADO     0000          2005 QG47          20160707
K05QH1Y 17.5   0.15 K167V 330.10960  185.65618  188.79787   13.60779  0.1180583  0.26724282   2.3870711  1 E2016-N49    49   5 2005-2016 0.25 M-v 38h MPCADO     0007          2005 QY171         20160707
K05QJ0P 16.1   0.15 K167V 345.30195   89.55337  278.32496   14.22068  0.2946724  0.18060176   3.0997124  2 E2016-N49    24   3 2005-2016 0.23 M-v 38h MPCADO     0000          2005 QP190         20160707
K05R05H 18.2   0.15 K167V 353.62470  109.50273  215.06531   21.46636  0.0778033  0.35583694   1.9722806  1 E2016-N49   114   5 2005-2016 0.32 M-v 38h MPCADO     0406          2005 RH5           20160707
K05R19L 17.9   0.15 K167V 339.59611  333.81348   19.00550    2.42500  0.2341268  0.26624311   2.3930428  3 E2016-N49    57   3 2005-2016 0.47 M-v 38h MPCADO     0000          2005 RL19          20160707
K05SF8F 18.1   0.15 K167V 357.47352    5.68988  320.22739    1.82208  0.2166131  0.26573812   2.3960735  2 E2016-N49    44   4 1994-2016 0.32 M-v 38h MPCADO     0000          2005 SF158         20160707
K05SH3N 17.8   0.15 K167V 326.39780   84.04157  273.83644    2.15059  0.1983617  0.26278126   2.4140140  2 E2016-N49    46   4 2005-2016 0.51 M-v 38h MPCADO     0000          2005 SN173         20160707
